HJ-1A
1 33320U 08041A   15135.78597913  .00001469  00000-0  21912-3 0  9996
2 33320 098.0319 197.9005 0025571 326.5730 033.3868 14.76144742360134
HJ-1B
1 33321U 08041B   15135.75424449  .00001616  00000-0  23919-3 0  9990
2 33321 098.0350 198.6136 0034810 342.3524 017.6481 14.76175233360119
HJ-1C
1 38997U 12064A   15135.82280182  .00023185  00000-0  54391-3 0  9999
2 38997 097.3271 155.4188 0013693 259.3869 223.1175 15.41963974139411
